CORAL                   
1 67684U 98067YA  26092.00940573  .00095906  00000+0  12221-2 0  9996
2 67684  51.6293 314.8808 0013294 261.1138  98.8349 15.58432095  8429
GXIBA-1                 
1 67685U 98067YB  26091.88479556  .00048495  00000+0  72618-3 0  9998
2 67685  51.6317 316.2995 0012295 267.6907  92.2676 15.54391194  8392
UITMSAT-2               
1 67686U 98067YC  26091.99607001  .00060177  00000+0  86470-3 0  9991
2 67686  51.6309 315.5446 0009352 241.4551 118.5499 15.55460720  8413
HMU-SAT2                
1 67687U 98067YD  26092.01899920  .00048045  00000+0  72719-3 0  9990
2 67687  51.6316 315.6984 0008907 244.0786 115.9287 15.54142799  8333
LEOPARD                 
1 67688U 98067YE  26092.00396076  .00054438  00000+0  79751-3 0  9990
2 67688  51.6310 315.5981 0009095 241.6191 118.3884 15.54979490  8332
CREW DRAGON 12          
1 67796U 26031A   26091.87535882  .00008601  00000+0  16573-3 0  9990
2 67796  51.6331 317.7347 0006236 261.1612  98.8670 15.48704825559892
PROGRESS-MS 33          
1 68319U 26058A   26091.87535882  .00008601  00000+0  16573-3 0  9991
2 68319  51.6331 317.7347 0006236 261.1612  98.8670 15.48704825  1403
